GLOBALSTAR M035 [-]     
1 25851U 99037A   24074.83206076 -.00000098  00000+0 -12893-2 0  9991
2 25851  51.9999 359.3589 0013514 319.6512  72.6607 11.04528564 45506
GLOBALSTAR M032 [-]     
1 25852U 99037B   24074.85021914 -.00000052  00000+0  46688-3 0  9999
2 25852  51.9925 216.2105 0010597 113.4279 246.7636 11.19049906 83365
GLOBALSTAR M051 [-]     
1 25853U 99037C   24074.43646654 -.00000087  00000+0 -36318-3 0  9996
2 25853  51.9790  69.9701 0001659 110.0607 250.0382 11.42194611 79853
GLOBALSTAR M030 [-]     
1 25854U 99037D   24075.53438638 -.00000064  00000+0  22830-3 0  9998
2 25854  51.9852 262.5964 0002967 316.3239  43.7343 11.55085541 97141
GLOBALSTAR M048 [-]     
1 25872U 99041A   24074.90744054 -.00000046  00000+0  64276-3 0  9995
2 25872  51.9409 346.1128 0013741 107.9809 331.4394 11.33843836 72881
GLOBALSTAR M026 [-]     
1 25873U 99041B   24074.45402146 -.00000110  00000+0 -17087-2 0  9999
2 25873  51.9991 123.0047 0001481 191.3449 181.9524 11.06834889 97580
GLOBALSTAR M043 [-]     
1 25874U 99041C   24075.28216307 -.00000062  00000+0  18431-3 0  9994
2 25874  51.9391  74.5731 0012809 250.3552 207.4739 11.25675496 71225
GLOBALSTAR M028 [-]     
1 25875U 99041D   24075.06316864 -.00000038  00000+0  40406-3 0  9990
2 25875  51.9614 122.0548 0063857 154.2315 206.1749 12.50552237132767
